SL-16 R/B               
1 25407U 98045B   26088.20912244 -.00000235  00000+0 -94285-4 0  9995
2 25407  71.0100 140.5278 0007995 338.0712  22.0068 14.16193902429863
ISS (ZARYA)             
1 25544U 98067A   26088.13267411  .00012260  00000+0  23326-3 0  9998
2 25544  51.6344 336.2407 0006215 245.2164 114.8178 15.48624340559341
CZ-4B R/B               
1 25732U 99025C   26088.13748584  .00000046  00000+0  42952-4 0  9993
2 25732  98.6586 131.9549 0036026 289.4450 135.2842 14.18269059390927
OKEAN-O                 
1 25860U 99039A   26088.18625662  .00000857  00000+0  11911-3 0  9996
2 25860  97.9402 147.8757 0000863  92.9154 267.2157 14.80366866437271
SL-16 R/B               
1 25861U 99039B   26088.14780372  .00000637  00000+0  87488-4 0  9992
2 25861  97.9924 147.2114 0014580 189.1889 170.9059 14.81757578439747
DELTA 2 R/B             
1 25876U 99041E   26088.05090397  .00000953  00000+0  19266-3 0  9991
2 25876  51.7607 223.9376 0502663  45.5292 318.5620 14.11880849365763
HELIOS 1B               
1 25977U 99064A   26088.15116879  .00002137  00000+0  24054-3 0  9990
2 25977  98.1674 350.9646 0001798  48.0746 312.0622 14.87773610688152
TERRA                   
1 25994U 99068A   26088.16684528  .00000472  00000+0  10519-3 0  9996
2 25994  97.9552 140.8535 0003577 110.9538 318.4372 14.61034969397924
SL-16 R/B               
1 26070U 00006B   26088.15899652  .00000327  00000+0  19049-3 0  9997
2 26070  71.0022  56.8960 0015702 159.3680 200.8080 14.15827468351317
TITAN 4B R/B            
1 26474U 00047B   26088.17519245  .00005115  00000+0  31860-3 0  9994
2 26474  67.9914 345.7122 0039844  12.5623 347.6509 15.09742293395858
ENVISAT                 
1 27386U 02009A   26088.14062292  .00000121  00000+0  53123-4 0  9998
2 27386  98.3758  41.2786 0001212  81.6265 289.7423 14.39043539261971
IDEFIX & ARIANE 42P R/B 
1 27422U 02021B   26087.93352455  .00000299  00000+0  13012-3 0  9990
2 27422  98.5892  26.3123 0012590 127.2690 232.9643 14.31038949246778
